{
  "norad_id": 62125,
  "name": "STARLINK-32488",
  "history": [
    {
      "epoch": "2026-03-28T06:01:16.982400Z",
      "apogee_km": 484.0740451855072,
      "perigee_km": 481.87025692618863,
      "latitude_deg": 4.452517887389852e-05,
      "longitude_deg": 115.71056235337022,
      "height_km": 483.0212018251211,
      "semi_major_axis_km": 6861.109151055847,
      "eccentricity": 0.0001606,
      "inclination_deg": 43.0019,
      "raan_deg": 31.7053,
      "arg_perigee_deg": 255.706,
      "mean_anomaly_deg": 104.3614,
      "mean_motion_rev_day": 15.27605697
    },
    {
      "epoch": "2026-03-29T03:59:27.794688Z",
      "apogee_km": 484.1165998545903,
      "perigee_km": 481.63840141696073,
      "latitude_deg": 1.7151419107566447e-05,
      "longitude_deg": 140.0923194648348,
      "height_km": 482.86489944867384,
      "semi_major_axis_km": 6861.014500635775,
      "eccentricity": 0.0001806,
      "inclination_deg": 43.0031,
      "raan_deg": 26.5344,
      "arg_perigee_deg": 260.2386,
      "mean_anomaly_deg": 99.8262,
      "mean_motion_rev_day": 15.27637308
    }
  ]
}